[{"OBJECT_NAME":"YAOGAN-39 05A","OBJECT_ID":"2023-194A","EPOCH":"2026-03-08T20:55:33.510432","MEAN_MOTION":15.23021204,"ECCENTRICITY":0.00045924,"INCLINATION":35.0016,"RA_OF_ASC_NODE":328.2574,"ARG_OF_PERICENTER":131.0582,"MEAN_ANOMALY":229.053,"EPHEMERIS_TYPE":0,"CLASSIFICATION_TYPE":"U","NORAD_CAT_ID":58557,"ELEMENT_SET_NO":999,"REV_AT_EPOCH":12505,"BSTAR":0.00065635507,"MEAN_MOTION_DOT":0.00015822,"MEAN_MOTION_DDOT":0},{"OBJECT_NAME":"T1DES 1 (DRAGOON 1)","OBJECT_ID":"2025-135Q","EPOCH":"2026-03-09T07:27:07.463520","MEAN_MOTION":15.23819655,"ECCENTRICITY":0.00038782,"INCLINATION":97.4578,"RA_OF_ASC_NODE":184.7906,"ARG_OF_PERICENTER":148.787,"MEAN_ANOMALY":211.3598,"EPHEMERIS_TYPE":0,"CLASSIFICATION_TYPE":"U","NORAD_CAT_ID":64542,"ELEMENT_SET_NO":999,"REV_AT_EPOCH":3970,"BSTAR":0.00060517834,"MEAN_MOTION_DOT":0.00014527,"MEAN_MOTION_DDOT":0}]
